SAR-LUPE 2              
1 31797U 07030A   26115.23948076  .00028537  00000+0  61807-3 0  9990
2 31797  98.0986 213.4110 0009807 299.7002  60.3268 15.44365805 48754
SAPPHIRE                
1 39088U 13009C   26115.24801152  .00000095  00000+0  48145-4 0  9998
2 39088  98.4251 295.9636 0012089  50.9616 309.2644 14.35225709688981
PRAETORIAN SDA_602      
1 65565U 25203A   26115.26254894  .00000182  00000+0  15262-3 0  9993
2 65565  81.3036  59.7882 0005896 348.9119  11.1907 13.84335675 31370
PRAETORIAN SDA_603      
1 65566U 25203B   26115.20024064  .00000214  00000+0  18234-3 0  9990
2 65566  81.3036  59.7232 0009561 344.0068  16.0785 13.83898247 31379
PRAETORIAN SDA_604      
1 65567U 25203C   26115.25939339  .00000022  00000+0  93716-5 0  9993
2 65567  81.3056  60.0006 0005660 356.8176   3.2943 13.83038820 31369
PRAETORIAN SDA_605      
1 65568U 25203D   26115.23955159  .00000080  00000+0  62259-4 0  9991
2 65568  81.3021  59.7340 0008057 341.5877  18.4987 13.83426509 31372
PRAETORIAN SDA_606      
1 65569U 25203E   26115.22340482  .00000118  00000+0  96370-4 0  9991
2 65569  81.3059  59.9528 0005790 346.5405  13.5596 13.83534198 31362
PRAETORIAN SDA_607      
1 65570U 25203F   26115.26286055  .00000295  00000+0  25375-3 0  9994
2 65570  81.3041  59.6559 0008817 344.8730  15.2161 13.84319688 31386
PRAETORIAN SDA_608      
1 65571U 25203G   26115.22215679  .00000075  00000+0  57065-4 0  9993
2 65571  81.3010  59.8344 0006125 354.7015   5.4075 13.83808398 31366
PRAETORIAN SDA_609      
1 65572U 25203H   26115.24520270  .00000268  00000+0  22969-3 0  9990
2 65572  81.3054  59.8110 0006822 346.0483  14.0485 13.84303321 31372
PRAETORIAN SDA_610      
1 65573U 25203J   26115.27694220  .00000049  00000+0  33128-4 0  9998
2 65573  81.3011  59.7470 0006516 349.9333  10.1692 13.83914577 31377
PRAETORIAN SDA_611      
1 65574U 25203K   26115.25561389  .00000223  00000+0  19260-3 0  9990
2 65574  81.3009  59.8856 0005847 359.5071   0.6078 13.83301980 31365
PRAETORIAN SDA_612      
1 65575U 25203L   26115.23900375  .00000302  00000+0  25692-3 0  9995
2 65575  81.3030  59.6171 0009216 343.8311  16.2551 13.85030571 31383
PRAETORIAN SDA_613      
1 65576U 25203M   26115.24494260  .00000060  00000+0  44427-4 0  9997
2 65576  81.3002  59.8586 0005760 352.3419   7.7648 13.82946306 31368
PRAETORIAN SDA_614      
1 65577U 25203N   26115.21825419  .00000067  00000+0  49176-4 0  9992
2 65577  81.3018  59.7012 0007048 344.8634  15.2311 13.84770635 31380
PRAETORIAN SDA_615      
1 65578U 25203P   26115.25431647  .00000280  00000+0  23967-3 0  9999
2 65578  81.3027  59.5978 0008922 342.4428  17.6419 13.84428551 31389
PRAETORIAN SDA_616      
1 65579U 25203Q   26115.25435401  .00000184  00000+0  15637-3 0  9990
2 65579  81.3066  59.9991 0005619 358.9759   1.1385 13.83317594 31362
PRAETORIAN SDA_617      
1 65580U 25203R   26115.27121222  .00000069  00000+0  52366-4 0  9990
2 65580  81.3040  59.8191 0007397 344.9410  15.1524 13.83196930 31371
PRAETORIAN SDA_618      
1 65581U 25203S   26115.23199094  .00000215  00000+0  18032-3 0  9993
2 65581  81.3029  59.5747 0009627 343.6596  16.4250 13.84767104 31381
PRAETORIAN SDA_619      
1 65582U 25203T   26115.23577865  .00000257  00000+0  22106-3 0  9993
2 65582  81.3052  59.7862 0007945 342.8567  17.2320 13.83936793 32006
PRAETORIAN SDA_620      
1 65583U 25203U   26115.25304609  .00000283  00000+0  24602-3 0  9992
2 65583  81.3033  59.7757 0007460 340.5209  19.5661 13.83612648 31371
PRAETORIAN SDA_621      
1 65584U 25203V   26115.23378203  .00000084  00000+0  64900-4 0  9997
2 65584  81.3024  59.7317 0007178 339.0745  21.0117 13.83792735 31378
PRAETORIAN SDA_601      
1 65585U 25203W   26115.25672362  .00000003  00000+0 -80386-5 0  9992
2 65585  81.3039  59.9551 0005665 359.2857   0.8290 13.83423392 31360
